ONEWEB-0714             
1 54681U 22166AR  26075.21883932  .00000061  00000+0  11550-3 0  9998
2 54681  87.9162 262.5155 0001534  99.3557 260.7750 13.21825904159250
ONEWEB-0532             
1 55140U 23004A   26074.93560909  .00000010  00000+0 -77667-5 0  9993
2 55140  87.9172  24.3807 0001815  67.7614 292.3710 13.17648802155309
ONEWEB-0533             
1 55141U 23004B   26075.06688180 -.00000375  00000+0 -10765-2 0  9999
2 55141  87.9016   9.1509 0001640  80.6564 279.4750 13.12442424155847
ONEWEB-0541             
1 55142U 23004C   26075.17653609  .00000018  00000+0  13883-4 0  9998
2 55142  87.8884  39.5416 0001987  78.6189 281.5162 13.11419468153758
ONEWEB-0543             
1 55143U 23004D   26075.06336937 -.00000120  00000+0 -33756-3 0  9995
2 55143  87.9231 353.9770 0001837  88.3775 271.7568 13.18685792157426
ONEWEB-0544             
1 55144U 23004E   26075.05677020 -.00000009  00000+0 -54791-4 0  9995
2 55144  87.9243 353.9758 0002017  80.5011 279.6349 13.18685607157423
ONEWEB-0560             
1 55145U 23004F   26075.20192586  .00000094  00000+0  20659-3 0  9999
2 55145  87.9240 353.9367 0002037  82.1529 277.9835 13.18686233157451
ONEWEB-0565             
1 55146U 23004G   26075.19531632  .00000046  00000+0  82923-4 0  9997
2 55146  87.9233 353.9747 0002264  72.5775 287.5605 13.18685419157440
ONEWEB-0567             
1 55147U 23004H   26075.03697803  .00000049  00000+0  92188-4 0  9991
2 55147  87.9244 353.9813 0002210  76.9630 283.1749 13.18685945157429
ONEWEB-0569             
1 55148U 23004J   26075.14763823 -.00000196  00000+0 -57109-3 0  9998
2 55148  87.9041 338.7249 0002646  88.2026 271.9406 13.13471624157963
ONEWEB-0570             
1 55149U 23004K   26075.17882891  .00000108  00000+0  24138-3 0  9996
2 55149  87.9243 353.9511 0001912  63.6833 296.4496 13.18685875157430
ONEWEB-0571             
1 55150U 23004L   26075.17222901  .00000040  00000+0  69916-4 0  9997
2 55150  87.9244 353.9514 0003027  73.5495 286.5970 13.18685510157443
ONEWEB-0572             
1 55151U 23004M   26075.11785112 -.00000034  00000+0 -12197-3 0  9993
2 55151  87.9160  24.3474 0002044  76.0975 284.0384 13.17648130155226
ONEWEB-0573             
1 55152U 23004N   26075.16563885  .00000096  00000+0  21117-3 0  9998
2 55152  87.9240 353.9550 0002447  64.6939 295.4446 13.18686814157434
ONEWEB-0588             
1 55153U 23004P   26075.15903112  .00000032  00000+0  48810-4 0  9999
2 55153  87.9242 353.9568 0001971  65.9130 294.2209 13.18689413157436
ONEWEB-0598             
1 55154U 23004Q   26075.15449570 -.00000585  00000+0 -16879-2 0  9996
2 55154  87.8870  39.5663 0002485  84.7839 275.3573 13.11415393153709
ONEWEB-0599             
1 55155U 23004R   26074.85123389  .00000045  00000+0  82136-4 0  9990
2 55155  87.9156  24.3992 0001947  86.0387 274.0967 13.17648602155195
