[{"OBJECT_NAME":"ONEWEB-0714","OBJECT_ID":"2022-166AR","EPOCH":"2026-03-16T05:15:07.717248","MEAN_MOTION":13.21825904,"ECCENTRICITY":0.00015347,"INCLINATION":87.9162,"RA_OF_ASC_NODE":262.5155,"ARG_OF_PERICENTER":99.3557,"MEAN_ANOMALY":260.775,"EPHEMERIS_TYPE":0,"CLASSIFICATION_TYPE":"U","NORAD_CAT_ID":54681,"ELEMENT_SET_NO":999,"REV_AT_EPOCH":15925,"BSTAR":0.00011549824,"MEAN_MOTION_DOT":6.1e-7,"MEAN_MOTION_DDOT":0},{"OBJECT_NAME":"ONEWEB-0532","OBJECT_ID":"2023-004A","EPOCH":"2026-03-15T22:27:16.625376","MEAN_MOTION":13.17648802,"ECCENTRICITY":0.00018158,"INCLINATION":87.9172,"RA_OF_ASC_NODE":24.3807,"ARG_OF_PERICENTER":67.7614,"MEAN_ANOMALY":292.371,"EPHEMERIS_TYPE":0,"CLASSIFICATION_TYPE":"U","NORAD_CAT_ID":55140,"ELEMENT_SET_NO":999,"REV_AT_EPOCH":15530,"BSTAR":-7.766697e-6,"MEAN_MOTION_DOT":1.0e-7,"MEAN_MOTION_DDOT":0},{"OBJECT_NAME":"ONEWEB-0533","OBJECT_ID":"2023-004B","EPOCH":"2026-03-16T01:36:18.587520","MEAN_MOTION":13.12442424,"ECCENTRICITY":0.00016404,"INCLINATION":87.9016,"RA_OF_ASC_NODE":9.1509,"ARG_OF_PERICENTER":80.6564,"MEAN_ANOMALY":279.475,"EPHEMERIS_TYPE":0,"CLASSIFICATION_TYPE":"U","NORAD_CAT_ID":55141,"ELEMENT_SET_NO":999,"REV_AT_EPOCH":15584,"BSTAR":-0.0010764711,"MEAN_MOTION_DOT":-3.75e-6,"MEAN_MOTION_DDOT":0},{"OBJECT_NAME":"ONEWEB-0541","OBJECT_ID":"2023-004C","EPOCH":"2026-03-16T04:14:12.718176","MEAN_MOTION":13.11419468,"ECCENTRICITY":0.00019872,"INCLINATION":87.8884,"RA_OF_ASC_NODE":39.5416,"ARG_OF_PERICENTER":78.6189,"MEAN_ANOMALY":281.5162,"EPHEMERIS_TYPE":0,"CLASSIFICATION_TYPE":"U","NORAD_CAT_ID":55142,"ELEMENT_SET_NO":999,"REV_AT_EPOCH":15375,"BSTAR":1.3882741e-5,"MEAN_MOTION_DOT":1.8e-7,"MEAN_MOTION_DDOT":0},{"OBJECT_NAME":"ONEWEB-0543","OBJECT_ID":"2023-004D","EPOCH":"2026-03-16T01:31:15.113568","MEAN_MOTION":13.18685792,"ECCENTRICITY":0.00018376,"INCLINATION":87.9231,"RA_OF_ASC_NODE":353.977,"ARG_OF_PERICENTER":88.3775,"MEAN_ANOMALY":271.7568,"EPHEMERIS_TYPE":0,"CLASSIFICATION_TYPE":"U","NORAD_CAT_ID":55143,"ELEMENT_SET_NO":999,"REV_AT_EPOCH":15742,"BSTAR":-0.00033755752,"MEAN_MOTION_DOT":-1.2e-6,"MEAN_MOTION_DDOT":0},{"OBJECT_NAME":"ONEWEB-0544","OBJECT_ID":"2023-004E","EPOCH":"2026-03-16T01:21:44.945280","MEAN_MOTION":13.18685607,"ECCENTRICITY":0.0002017,"INCLINATION":87.9243,"RA_OF_ASC_NODE":353.9758,"ARG_OF_PERICENTER":80.5011,"MEAN_ANOMALY":279.6349,"EPHEMERIS_TYPE":0,"CLASSIFICATION_TYPE":"U","NORAD_CAT_ID":55144,"ELEMENT_SET_NO":999,"REV_AT_EPOCH":15742,"BSTAR":-5.4790665e-5,"MEAN_MOTION_DOT":-9.0e-8,"MEAN_MOTION_DDOT":0},{"OBJECT_NAME":"ONEWEB-0560","OBJECT_ID":"2023-004F","EPOCH":"2026-03-16T04:50:46.394304","MEAN_MOTION":13.18686233,"ECCENTRICITY":0.00020372,"INCLINATION":87.924,"RA_OF_ASC_NODE":353.9367,"ARG_OF_PERICENTER":82.1529,"MEAN_ANOMALY":277.9835,"EPHEMERIS_TYPE":0,"CLASSIFICATION_TYPE":"U","NORAD_CAT_ID":55145,"ELEMENT_SET_NO":999,"REV_AT_EPOCH":15745,"BSTAR":0.000206589,"MEAN_MOTION_DOT":9.4e-7,"MEAN_MOTION_DDOT":0},{"OBJECT_NAME":"ONEWEB-0565","OBJECT_ID":"2023-004G","EPOCH":"2026-03-16T04:41:15.330048","MEAN_MOTION":13.18685419,"ECCENTRICITY":0.00022645,"INCLINATION":87.9233,"RA_OF_ASC_NODE":353.9747,"ARG_OF_PERICENTER":72.5775,"MEAN_ANOMALY":287.5605,"EPHEMERIS_TYPE":0,"CLASSIFICATION_TYPE":"U","NORAD_CAT_ID":55146,"ELEMENT_SET_NO":999,"REV_AT_EPOCH":15744,"BSTAR":8.2922932e-5,"MEAN_MOTION_DOT":4.6e-7,"MEAN_MOTION_DDOT":0},{"OBJECT_NAME":"ONEWEB-0567","OBJECT_ID":"2023-004H","EPOCH":"2026-03-16T00:53:14.901792","MEAN_MOTION":13.18685945,"ECCENTRICITY":0.00022104,"INCLINATION":87.9244,"RA_OF_ASC_NODE":353.9813,"ARG_OF_PERICENTER":76.963,"MEAN_ANOMALY":283.1749,"EPHEMERIS_TYPE":0,"CLASSIFICATION_TYPE":"U","NORAD_CAT_ID":55147,"ELEMENT_SET_NO":999,"REV_AT_EPOCH":15742,"BSTAR":9.2187967e-5,"MEAN_MOTION_DOT":4.9e-7,"MEAN_MOTION_DDOT":0},{"OBJECT_NAME":"ONEWEB-0569","OBJECT_ID":"2023-004J","EPOCH":"2026-03-16T03:32:35.943072","MEAN_MOTION":13.13471624,"ECCENTRICITY":0.00026461,"INCLINATION":87.9041,"RA_OF_ASC_NODE":338.7249,"ARG_OF_PERICENTER":88.2026,"MEAN_ANOMALY":271.9406,"EPHEMERIS_TYPE":0,"CLASSIFICATION_TYPE":"U","NORAD_CAT_ID":55148,"ELEMENT_SET_NO":999,"REV_AT_EPOCH":15796,"BSTAR":-0.00057108999,"MEAN_MOTION_DOT":-1.96e-6,"MEAN_MOTION_DDOT":0},{"OBJECT_NAME":"ONEWEB-0570","OBJECT_ID":"2023-004K","EPOCH":"2026-03-16T04:17:30.817824","MEAN_MOTION":13.18685875,"ECCENTRICITY":0.00019125,"INCLINATION":87.9243,"RA_OF_ASC_NODE":353.9511,"ARG_OF_PERICENTER":63.6833,"MEAN_ANOMALY":296.4496,"EPHEMERIS_TYPE":0,"CLASSIFICATION_TYPE":"U","NORAD_CAT_ID":55149,"ELEMENT_SET_NO":999,"REV_AT_EPOCH":15743,"BSTAR":0.00024138199,"MEAN_MOTION_DOT":1.08e-6,"MEAN_MOTION_DDOT":0},{"OBJECT_NAME":"ONEWEB-0571","OBJECT_ID":"2023-004L","EPOCH":"2026-03-16T04:08:00.586464","MEAN_MOTION":13.1868551,"ECCENTRICITY":0.00030272,"INCLINATION":87.9244,"RA_OF_ASC_NODE":353.9514,"ARG_OF_PERICENTER":73.5495,"MEAN_ANOMALY":286.597,"EPHEMERIS_TYPE":0,"CLASSIFICATION_TYPE":"U","NORAD_CAT_ID":55150,"ELEMENT_SET_NO":999,"REV_AT_EPOCH":15744,"BSTAR":6.9915505e-5,"MEAN_MOTION_DOT":4.0e-7,"MEAN_MOTION_DDOT":0},{"OBJECT_NAME":"ONEWEB-0572","OBJECT_ID":"2023-004M","EPOCH":"2026-03-16T02:49:42.336768","MEAN_MOTION":13.1764813,"ECCENTRICITY":0.00020443,"INCLINATION":87.916,"RA_OF_ASC_NODE":24.3474,"ARG_OF_PERICENTER":76.0975,"MEAN_ANOMALY":284.0384,"EPHEMERIS_TYPE":0,"CLASSIFICATION_TYPE":"U","NORAD_CAT_ID":55151,"ELEMENT_SET_NO":999,"REV_AT_EPOCH":15522,"BSTAR":-0.00012196987,"MEAN_MOTION_DOT":-3.4e-7,"MEAN_MOTION_DDOT":0},{"OBJECT_NAME":"ONEWEB-0573","OBJECT_ID":"2023-004N","EPOCH":"2026-03-16T03:58:31.196640","MEAN_MOTION":13.18686814,"ECCENTRICITY":0.00024479,"INCLINATION":87.924,"RA_OF_ASC_NODE":353.955,"ARG_OF_PERICENTER":64.6939,"MEAN_ANOMALY":295.4446,"EPHEMERIS_TYPE":0,"CLASSIFICATION_TYPE":"U","NORAD_CAT_ID":55152,"ELEMENT_SET_NO":999,"REV_AT_EPOCH":15743,"BSTAR":0.00021117489,"MEAN_MOTION_DOT":9.6e-7,"MEAN_MOTION_DDOT":0},{"OBJECT_NAME":"ONEWEB-0588","OBJECT_ID":"2023-004P","EPOCH":"2026-03-16T03:49:00.288768","MEAN_MOTION":13.18689413,"ECCENTRICITY":0.00019717,"INCLINATION":87.9242,"RA_OF_ASC_NODE":353.9568,"ARG_OF_PERICENTER":65.913,"MEAN_ANOMALY":294.2209,"EPHEMERIS_TYPE":0,"CLASSIFICATION_TYPE":"U","NORAD_CAT_ID":55153,"ELEMENT_SET_NO":999,"REV_AT_EPOCH":15743,"BSTAR":4.8809512e-5,"MEAN_MOTION_DOT":3.2e-7,"MEAN_MOTION_DDOT":0},{"OBJECT_NAME":"ONEWEB-0598","OBJECT_ID":"2023-004Q","EPOCH":"2026-03-16T03:42:28.428480","MEAN_MOTION":13.11415393,"ECCENTRICITY":0.00024852,"INCLINATION":87.887,"RA_OF_ASC_NODE":39.5663,"ARG_OF_PERICENTER":84.7839,"MEAN_ANOMALY":275.3573,"EPHEMERIS_TYPE":0,"CLASSIFICATION_TYPE":"U","NORAD_CAT_ID":55154,"ELEMENT_SET_NO":999,"REV_AT_EPOCH":15370,"BSTAR":-0.0016878976,"MEAN_MOTION_DOT":-5.85e-6,"MEAN_MOTION_DDOT":0},{"OBJECT_NAME":"ONEWEB-0599","OBJECT_ID":"2023-004R","EPOCH":"2026-03-15T20:25:46.608096","MEAN_MOTION":13.17648602,"ECCENTRICITY":0.00019475,"INCLINATION":87.9156,"RA_OF_ASC_NODE":24.3992,"ARG_OF_PERICENTER":86.0387,"MEAN_ANOMALY":274.0967,"EPHEMERIS_TYPE":0,"CLASSIFICATION_TYPE":"U","NORAD_CAT_ID":55155,"ELEMENT_SET_NO":999,"REV_AT_EPOCH":15519,"BSTAR":8.213625e-5,"MEAN_MOTION_DOT":4.5e-7,"MEAN_MOTION_DDOT":0}]
